SL-16 R/B               
1 25400U 98043G   25361.74343355  .00000097  00000+0  59487-4 0  9998
2 25400  98.8147 309.6471 0009105 218.4695 141.5836 14.26029068428730
SL-16 R/B               
1 25407U 98045B   25361.95098584  .00000235  00000+0  14295-3 0  9992
2 25407  71.0124 332.4369 0006010 151.2670 208.8786 14.16179919416945
ISS (ZARYA)             
1 25544U 98067A   25361.88879673  .00015012  00000+0  27157-3 0  9996
2 25544  51.6320  67.4500 0003237 312.1119  47.9595 15.49886938545200
CZ-4B R/B               
1 25732U 99025C   25361.98845681  .00000071  00000+0  54969-4 0  9994
2 25732  98.6749  42.9259 0036990 189.5810 234.6229 14.18247403378004
OKEAN-O                 
1 25860U 99039A   25361.59413094  .00000866  00000+0  12090-3 0  9997
2 25860  97.9583  57.1660 0001185 114.9231 245.2104 14.80186923423723
SL-16 R/B               
1 25861U 99039B   25361.91264574  .00000794  00000+0  10772-3 0  9996
2 25861  98.0107  56.0635 0015924 127.4293 232.8371 14.81608978426238
DELTA 2 R/B             
1 25876U 99041E   25361.93736550  .00001782  00000+0  32559-3 0  9990
2 25876  51.7597 227.7775 0504406 136.5537 227.6313 14.11444816352895
HELIOS 1B               
1 25977U 99064A   25361.60427515  .00002617  00000+0  29625-3 0  9997
2 25977  98.1748 256.7112 0000810  30.8324 329.2939 14.87343385674541
TERRA                   
1 25994U 99068A   25361.94684579  .00000596  00000+0  13089-3 0  9993
2 25994  97.9728  53.0716 0003341  63.8825  37.3410 14.60919319384600
SL-16 R/B               
1 26070U 00006B   25361.94775065  .00000270  00000+0  16153-3 0  9998
2 26070  71.0010 248.6819 0018621 288.0966  71.8129 14.15810336338409
TITAN 4B R/B            
1 26474U 00047B   25361.92344437  .00004252  00000+0  27302-3 0  9996
2 26474  67.9888 242.2092 0037896 125.8612 234.6066 15.08892131382086
ENVISAT                 
1 27386U 02009A   25352.94754304  .00000081  00000+0  39999-4 0  9991
2 27386  98.3609 303.5309 0001126  84.8976 298.2993 14.39001403247569
